SL-16 R/B               
1 26070U 00006B   22037.29870744 -.00000230  00000+0 -92943-4 0  9993
2 26070  71.0040 354.8339 0018929 290.0836  69.8250 14.15476492137353
MTI                     
1 26102U 00014A   22037.54301299  .00075119  00000+0  56214-3 0  9996
2 26102  97.4606 322.8540 0006458 125.4830 234.7079 15.72423436217969
TITAN 4B R/B            
1 26474U 00047B   22037.58593107  .00001143  00000+0  10777-3 0  9999
2 26474  67.9918 226.0810 0060748 259.5144  99.9150 14.96418191168865
ENVISAT                 
1 27386U 02009A   22037.59055567  .00000138  00000+0  58925-4 0  9997
2 27386  98.1707  24.9311 0001206  89.3607  20.3336 14.38074970 44651
IDEFIX & ARIANE 42P R/B 
1 27422U 02021B   22037.47691658  .00000143  00000+0  72726-4 0  9997
2 27422  98.4345 347.5228 0011066 263.0072  96.9851 14.29359626 30746
AQUA                    
1 27424U 02022A   22037.42156529  .00000505  00000+0  12222-3 0  9994
2 27424  98.2350 340.6726 0000717  59.7903  50.3853 14.57132178 51104
CZ-4B R/B               
1 27432U 02024C   22037.57375562 -.00000006  00000+0  21254-4 0  9994
2 27432  99.0743  60.7475 0049490 286.5110 183.7477 14.14124243 18327
MIDORI II (ADEOS-II)    
1 27597U 02056A   22037.54977506  .00000176  00000+0  89128-4 0  9995
2 27597  98.5931 343.4966 0001909  61.6455 298.4919 14.27554006997289
H-2A R/B                
1 27601U 02056E   22037.55691899  .00000069  00000+0  39821-4 0  9996
2 27601  98.1804  51.6322 0070961 292.1600 176.7742 14.32032208   447
CZ-4B R/B               
1 28059U 03049C   22037.58062158  .00000202  00000+0  60010-4 0  9993
2 28059  98.5109 332.4175 0051138 106.8210 253.8603 14.52709542969818
CZ-2C R/B               
1 28222U 04012C   22037.51598280  .00003186  00000+0  18723-3 0  9996
2 28222  97.7586  16.1602 0047019 139.2669 334.4688 15.11524347976442
SL-16 R/B               
1 28353U 04021B   22037.57558456 -.00000160  00000+0 -58713-4 0  9993
2 28353  71.0005 122.7833 0004350 173.1252 186.9930 14.14250130911845
CZ-4B R/B               
1 28415U 04035C   22037.38239458  .00002313  00000+0  15196-3 0  9991
2 28415  97.5364  80.5977 0052453 107.6623 253.0341 15.07477324953843
CZ-2C R/B               
1 28480U 04046B   22037.54378781  .00000139  00000+0  68107-4 0  9991
2 28480  98.0563  35.6914 0140615 249.9757 217.4145 14.25787653895782
ARIANE 5 R/B            
1 28499U 04049H   22037.60129663  .00000615  00000+0  82344-4 0  9992
2 28499  98.0834 153.3152 0092735 136.6613 234.8155 14.80243426924724
CZ-2D R/B               
1 28738U 05024B   22037.55623696  .00002746  00000+0  15922-3 0  9995
2 28738  97.3556  50.2545 0009894 272.2840  87.7258 15.12944719911956
SUZAKU (ASTRO-EII)      
1 28773U 05025A   22037.52305100  .00004970  00000+0  22388-3 0  9994
2 28773  31.3814  76.8802 0004395 125.9068 234.1988 15.19502590915087
ALOS (DAICHI)           
1 28931U 06002A   22037.34252970  .00000506  00000+0  10751-3 0  9994
2 28931  97.9179   7.2484 0001977  41.8063 318.3299 14.62984847855251
H-2A R/B                
1 28932U 06002B   22037.54586439  .00001800  00000+0  16707-3 0  9992
2 28932  98.3097  72.8176 0088051 160.3690 324.7398 14.92948847870502
AKARI (ASTRO-F)         
1 28939U 06005A   22037.39771586  .00016571  00000+0  36613-3 0  9993
2 28939  98.2149  94.2292 0080335  22.1454 338.3228 15.40509183872878
RESURS-DK 1             
1 29228U 06021A   22037.51454745  .00000849  00000+0  70418-4 0  9995
2 29228  69.9355 102.6267 0007841 266.2487  93.7778 15.02905701862705
GENESIS 1               
1 29252U 06029A   22037.53991150  .00004351  00000+0  20464-3 0  9995
2 29252  64.5230 140.6046 0059221 282.0180  77.4311 15.19477579859070
CZ-4B R/B               
1 29507U 06046C   22037.52317445  .00000721  00000+0  59816-4 0  9996
2 29507  97.7456  68.1209 0045178 306.2355  53.4697 15.01316911835220
CZ-2C R/B               
1 31114U 07010B   22037.51027060  .00000114  00000+0  71983-4 0  9990
2 31114  98.2299 219.7618 0058940 320.8063  38.8853 14.19392161767982
COSMO-SKYMED 1          
1 31598U 07023A   22037.22883829  .00000512  00000+0  70820-4 0  9992
2 31598  97.8823 222.7844 0001552  90.9668 269.1695 14.82156988793521
GENESIS 2               
1 31789U 07028A   22037.52018983  .00003629  00000+0  18301-3 0  9990
2 31789  64.4970 183.5202 0031971 339.3420  20.6408 15.18454435806011
COSMOS 2428             
1 31792U 07029A   22037.54941397  .00000326  00000+0  20243-3 0  9990
2 31792  70.9305  94.4013 0010792 253.0421 106.9517 14.12457151753369
SL-16 R/B               
1 31793U 07029B   22037.56838675  .00000322  00000+0  19314-3 0  9990
2 31793  70.9751  67.8197 0001753 265.4690 208.4038 14.14460470754350
KORONAS-FOTON           
1 33504U 09003A   22037.57955765  .00002444  00000+0  12346-3 0  9992
2 33504  82.4446 346.3815 0019059  10.4423 349.7201 15.16466454718120
H-2A R/B                
1 38341U 12025E   22037.58300127  .00000872  00000+0  10831-3 0  9991
2 38341  98.5178 244.0568 0056221 107.0606 253.6776 14.84426524526238
CUSAT 2 & FALCON 9 R/B  
1 39271U 13055G   22037.54731647  .00017356  00000+0  39120-3 0  9996
2 39271  80.9652 338.5849 0550954 157.6037 205.0264 14.57351731437674
CZ-2C R/B               
1 39364U 13059B   22037.18216256  .00007329  00000+0  25203-3 0  9993
2 39364  97.1809  95.0194 0046715  81.3546 279.2983 15.29303567460134
SL-4 R/B                
1 39679U 14021B   22037.43948042  .00003275  00000+0  17064-3 0  9997
2 39679  51.6139 205.6229 0167723 222.9243 135.8538 15.07635892429348
ALOS-2                  
1 39766U 14029A   22037.33242532  .00000000  00000+0  68134-5 0  9991
2 39766  97.9198 136.3481 0001615  94.3696 265.7697 14.79472099416243
CZ-2C R/B               
1 40306U 14071B   22037.42572628  .00024115  00000+0  38261-3 0  9991
2 40306  97.4056   5.8708 0014388 131.0507 229.1992 15.53250489406506
SL-27 R/B               
1 40354U 14084B   22037.57525805  .00006411  00000+0  14716-3 0  9997
2 40354  74.7365 227.1571 0034709 114.2570 246.2276 15.42211289400411
YAOGAN 29               
1 41038U 15069A   22037.45195658  .00000237  00000+0  37867-4 0  9990
2 41038  98.0517  37.0895 0002196  94.1835 265.9632 14.80572859334909
ASTRO-H (HITOMI)        
1 41337U 16012A   22037.50454088  .00001382  00000+0  10425-3 0  9994
2 41337  31.0042 170.6875 0012261 232.6760 127.2758 14.99058216327450
HXMT (HUIYAN)           
1 42758U 17034A   22037.59189630  .00002591  00000+0  17148-3 0  9996
2 42758  43.0184 347.5768 0007781 190.0330 339.5602 15.09669164256397
CZ-2C R/B               
1 43521U 18054D   22037.52445512  .00003483  00000+0  18429-3 0  9999
2 43521  35.1538  85.4445 0080312   4.8681 355.2799 15.12240539199846
AEOLUS                  
1 43600U 18066A   22037.51623815  .00088277  00000+0  34384-3 0  9995
2 43600  96.7132  45.6182 0009084  89.1833 271.0480 15.86798839200369
SAOCOM 1A               
1 43641U 18076A   22037.50723879 -.00000632  00000+0 -72878-4 0  9993
2 43641  97.8848 226.0722 0001632  81.4557 278.6710 14.82154221180333
SAOCOM 1B               
1 46265U 20059A   22037.47094396  .00000229  00000+0  35268-4 0  9995
2 46265  97.8845 225.1052 0001532  83.2420 276.8978 14.82159782 77720
SL-4 R/B                
1 47547U 21008B   22037.47751496  .00416791  55252-5  54897-3 0  9993
2 47547  67.1138  32.5503 0142362  95.8859 265.8570 15.89796261 56531
TIANHE                  
1 48274U 21035A   22037.47828704  .00021920  00000+0  25198-3 0  9991
2 48274  41.4705 295.3948 0005934 255.3724 102.0636 15.61478161 44328
